[{"OBJECT_NAME":"STARLINK-36116","OBJECT_ID":"2025-286Z","EPOCH":"2026-03-09T22:30:48.772800","MEAN_MOTION":15.30207627,"ECCENTRICITY":0.00011969,"INCLINATION":53.1614,"RA_OF_ASC_NODE":357.373,"ARG_OF_PERICENTER":110.8378,"MEAN_ANOMALY":249.2751,"EPHEMERIS_TYPE":0,"CLASSIFICATION_TYPE":"U","NORAD_CAT_ID":66948,"ELEMENT_SET_NO":999,"REV_AT_EPOCH":1544,"BSTAR":0.00091118171,"MEAN_MOTION_DOT":0.00026731,"MEAN_MOTION_DDOT":0},{"OBJECT_NAME":"SL-19 R\/B","OBJECT_ID":"2011-005B","EPOCH":"2026-03-09T21:50:35.538720","MEAN_MOTION":15.57556472,"ECCENTRICITY":0.01260184,"INCLINATION":99.3438,"RA_OF_ASC_NODE":178.5978,"ARG_OF_PERICENTER":174.8144,"MEAN_ANOMALY":185.4445,"EPHEMERIS_TYPE":0,"CLASSIFICATION_TYPE":"U","NORAD_CAT_ID":37363,"ELEMENT_SET_NO":999,"REV_AT_EPOCH":82354,"BSTAR":0.00054776137,"MEAN_MOTION_DOT":0.00058791,"MEAN_MOTION_DDOT":0}]
